{"type": "FeatureCollection", "features": [ {"type": "Feature", "properties": {"norad_id": 32384, "name": "GPS BIIRM-5 (PRN 29)", "group": "gps-ops", "lat": 51.38056699000483, "lon": -18.037465659830037, "alt_km": 20175.01611034134, "timestamp": "2025-12-16T03:53:27.314193+00:00", "meta": {"OBJECT_NAME": "GPS BIIRM-5 (PRN 29)", "OBJECT_ID": "2007-062A", "EPOCH": "2025-12-15T07:18:28.711872", "MEAN_MOTION": 2.00577504, "ECCENTRICITY": 0.00322412, "INCLINATION": 55.1799, "RA_OF_ASC_NODE": 281.543, "ARG_OF_PERICENTER": 162.3611, "MEAN_ANOMALY": 10.7934, "EPHEMERIS_TYPE": 0, "CLASSIFICATION_TYPE": "U", "NORAD_CAT_ID": 32384, "ELEMENT_SET_NO": 999, "REV_AT_EPOCH": 13182, "BSTAR": 0, "MEAN_MOTION_DOT": -7.4e-07, "MEAN_MOTION_DDOT": 0}, "tle": {"line1": "1 32384U 07062A   25349.30449898 -.00000074  00000+0  00000+0 0  9993", "line2": "2 32384  55.1799 281.5430 0032241 162.3611  10.7934  2.00577504131822"}}, "geometry": {"type": "Point", "coordinates": [-18.037465659830037, 51.38056699000483]}}, {"type": "Feature", "properties": {"norad_id": 32711, "name": "GPS BIIRM-6 (PRN 07)", "group": "gps-ops", "lat": -0.9735331018025534, "lon": 156.532353772471, "alt_km": 20390.260552973286, "timestamp": "2025-12-16T03:53:27.314205+00:00", "meta": {"OBJECT_NAME": "GPS BIIRM-6 (PRN 07)", "OBJECT_ID": "2008-012A", "EPOCH": "2025-12-14T16:02:03.484896", "MEAN_MOTION": 2.0056573, "ECCENTRICITY": 0.0202527, "INCLINATION": 54.4772, "RA_OF_ASC_NODE": 157.2959, "ARG_OF_PERICENTER": 244.9733, "MEAN_ANOMALY": 112.9236, "EPHEMERIS_TYPE": 0, "CLASSIFICATION_TYPE": "U", "NORAD_CAT_ID": 32711, "ELEMENT_SET_NO": 999, "REV_AT_EPOCH": 13005, "BSTAR": 0, "MEAN_MOTION_DOT": 9.8e-07, "MEAN_MOTION_DDOT": 0}, "tle": {"line1": "1 32711U 08012A   25348.66809589  .00000098  00000+0  00000+0 0  9993", "line2": "2 32711  54.4772 157.2959 0202527 244.9733 112.9236  2.00565730130054"}}, "geometry": {"type": "Point", "coordinates": [156.532353772471, -0.9735331018025534]}}, {"type": "Feature", "properties": {"norad_id": 35752, "name": "GPS BIIRM-8 (PRN 05)", "group": "gps-ops", "lat": 13.259535101031485, "lon": 43.77835014298744, "alt_km": 20123.45023573474, "timestamp": "2025-12-16T03:53:27.314216+00:00", "meta": {"OBJECT_NAME": "GPS BIIRM-8 (PRN 05)", "OBJECT_ID": "2009-043A", "EPOCH": "2025-12-14T15:32:04.041600", "MEAN_MOTION": 2.00565642, "ECCENTRICITY": 0.00517621, "INCLINATION": 56.0923, "RA_OF_ASC_NODE": 34.7078, "ARG_OF_PERICENTER": 81.8798, "MEAN_ANOMALY": 280.9533, "EPHEMERIS_TYPE": 0, "CLASSIFICATION_TYPE": "U", "NORAD_CAT_ID": 35752, "ELEMENT_SET_NO": 999, "REV_AT_EPOCH": 11966, "BSTAR": 0, "MEAN_MOTION_DOT": -9.3e-07, "MEAN_MOTION_DDOT": 0}, "tle": {"line1": "1 35752U 09043A   25348.64726900 -.00000093  00000+0  00000+0 0  9995", "line2": "2 35752  56.0923  34.7078 0051762  81.8798 280.9533  2.00565642119663"}}, "geometry": {"type": "Point", "coordinates": [43.77835014298744, 13.259535101031485]}}, {"type": "Feature", "properties": {"norad_id": 36585, "name": "GPS BIIF-1  (PRN 25)", "group": "gps-ops", "lat": 34.180509264481636, "lon": 6.734219434594372, "alt_km": 20066.619772238566, "timestamp": "2025-12-16T03:53:27.314227+00:00", "meta": {"OBJECT_NAME": "GPS BIIF-1  (PRN 25)", "OBJECT_ID": "2010-022A", "EPOCH": "2025-12-15T05:30:38.622816", "MEAN_MOTION": 2.00553409, "ECCENTRICITY": 0.01262158, "INCLINATION": 54.2997, "RA_OF_ASC_NODE": 215.9735, "ARG_OF_PERICENTER": 65.1022, "MEAN_ANOMALY": 116.5143, "EPHEMERIS_TYPE": 0, "CLASSIFICATION_TYPE": "U", "NORAD_CAT_ID": 36585, "ELEMENT_SET_NO": 999, "REV_AT_EPOCH": 11390, "BSTAR": 0, "MEAN_MOTION_DOT": 6.3e-07, "MEAN_MOTION_DDOT": 0}, "tle": {"line1": "1 36585U 10022A   25349.22961369  .00000063  00000+0  00000+0 0  9990", "line2": "2 36585  54.2997 215.9735 0126215  65.1022 116.5143  2.00553409113903"}}, "geometry": {"type": "Point", "coordinates": [6.734219434594372, 34.180509264481636]}}, {"type": "Feature", "properties": {"norad_id": 38833, "name": "GPS BIIF-3  (PRN 24)", "group": "gps-ops", "lat": -39.92957853864411, "lon": 9.305095195798112, "alt_km": 20644.79561575781, "timestamp": "2025-12-16T03:53:27.314239+00:00", "meta": {"OBJECT_NAME": "GPS BIIF-3  (PRN 24)", "OBJECT_ID": "2012-053A", "EPOCH": "2025-12-14T20:17:27.870144", "MEAN_MOTION": 2.00565059, "ECCENTRICITY": 0.01759136, "INCLINATION": 53.558, "RA_OF_ASC_NODE": 151.1523, "ARG_OF_PERICENTER": 64.0191, "MEAN_ANOMALY": 297.785, "EPHEMERIS_TYPE": 0, "CLASSIFICATION_TYPE": "U", "NORAD_CAT_ID": 38833, "ELEMENT_SET_NO": 999, "REV_AT_EPOCH": 9574, "BSTAR": 0, "MEAN_MOTION_DOT": 8.8e-07, "MEAN_MOTION_DDOT": 0}, "tle": {"line1": "1 38833U 12053A   25348.84546146  .00000088  00000+0  00000+0 0  9990", "line2": "2 38833  53.5580 151.1523 0175913  64.0191 297.7850  2.00565059 95743"}}, "geometry": {"type": "Point", "coordinates": [9.305095195798112, -39.92957853864411]}}, {"type": "Feature", "properties": {"norad_id": 39166, "name": "GPS BIIF-4  (PRN 27)", "group": "gps-ops", "lat": -25.198132060079665, "lon": -103.06904663844976, "alt_km": 20115.459527644613, "timestamp": "2025-12-16T03:53:27.314250+00:00", "meta": {"OBJECT_NAME": "GPS BIIF-4  (PRN 27)", "OBJECT_ID": "2013-023A", "EPOCH": "2025-12-14T05:03:38.216736", "MEAN_MOTION": 2.0056471, "ECCENTRICITY": 0.01375063, "INCLINATION": 54.6512, "RA_OF_ASC_NODE": 276.5088, "ARG_OF_PERICENTER": 48.2653, "MEAN_ANOMALY": 312.9132, "EPHEMERIS_TYPE": 0, "CLASSIFICATION_TYPE": "U", "NORAD_CAT_ID": 39166, "ELEMENT_SET_NO": 999, "REV_AT_EPOCH": 9217, "BSTAR": 0, "MEAN_MOTION_DOT": -7.4e-07, "MEAN_MOTION_DDOT": 0}, "tle": {"line1": "1 39166U 13023A   25348.21085899 -.00000074  00000+0  00000+0 0  9998", "line2": "2 39166  54.6512 276.5088 0137506  48.2653 312.9132  2.00564710 92171"}}, "geometry": {"type": "Point", "coordinates": [-103.06904663844976, -25.198132060079665]}}, {"type": "Feature", "properties": {"norad_id": 39533, "name": "GPS BIIF-5  (PRN 30)", "group": "gps-ops", "lat": -20.983377653674285, "lon": 140.35303670232935, "alt_km": 20244.10347842671, "timestamp": "2025-12-16T03:53:27.314262+00:00", "meta": {"OBJECT_NAME": "GPS BIIF-5  (PRN 30)", "OBJECT_ID": "2014-008A", "EPOCH": "2025-12-15T04:50:44.382048", "MEAN_MOTION": 2.00574587, "ECCENTRICITY": 0.00792844, "INCLINATION": 53.6316, "RA_OF_ASC_NODE": 156.8242, "ARG_OF_PERICENTER": 226.5494, "MEAN_ANOMALY": 132.8002, "EPHEMERIS_TYPE": 0, "CLASSIFICATION_TYPE": "U", "NORAD_CAT_ID": 39533, "ELEMENT_SET_NO": 999, "REV_AT_EPOCH": 8599, "BSTAR": 0, "MEAN_MOTION_DOT": 9.4e-07, "MEAN_MOTION_DDOT": 0}, "tle": {"line1": "1 39533U 14008A   25349.20190257  .00000094  00000+0  00000+0 0  9996", "line2": "2 39533  53.6316 156.8242 0079284 226.5494 132.8002  2.00574587 85994"}}, "geometry": {"type": "Point", "coordinates": [140.35303670232935, -20.983377653674285]}}, {"type": "Feature", "properties": {"norad_id": 39741, "name": "GPS BIIF-6  (PRN 06)", "group": "gps-ops", "lat": 40.81320155904064, "lon": 123.87471987065895, "alt_km": 20280.0485032855, "timestamp": "2025-12-16T03:53:27.314273+00:00", "meta": {"OBJECT_NAME": "GPS BIIF-6  (PRN 06)", "OBJECT_ID": "2014-026A", "EPOCH": "2025-12-14T23:41:00.555072", "MEAN_MOTION": 2.00561287, "ECCENTRICITY": 0.00392407, "INCLINATION": 56.5827, "RA_OF_ASC_NODE": 338.6889, "ARG_OF_PERICENTER": 318.8157, "MEAN_ANOMALY": 40.9005, "EPHEMERIS_TYPE": 0, "CLASSIFICATION_TYPE": "U", "NORAD_CAT_ID": 39741, "ELEMENT_SET_NO": 999, "REV_AT_EPOCH": 8484, "BSTAR": 0, "MEAN_MOTION_DOT": -8.7e-07, "MEAN_MOTION_DDOT": 0}, "tle": {"line1": "1 39741U 14026A   25348.98681198 -.00000087  00000+0  00000+0 0  9993", "line2": "2 39741  56.5827 338.6889 0039240 318.8157  40.9005  2.00561287 84848"}}, "geometry": {"type": "Point", "coordinates": [123.87471987065895, 40.81320155904064]}}, {"type": "Feature", "properties": {"norad_id": 40105, "name": "GPS BIIF-7  (PRN 09)", "group": "gps-ops", "lat": 48.44347841545664, "lon": 147.26381327686087, "alt_km": 20124.899036807346, "timestamp": "2025-12-16T03:53:27.314285+00:00", "meta": {"OBJECT_NAME": "GPS BIIF-7  (PRN 09)", "OBJECT_ID": "2014-045A", "EPOCH": "2025-12-12T01:59:18.865536", "MEAN_MOTION": 2.00572516, "ECCENTRICITY": 0.00326941, "INCLINATION": 55.2287, "RA_OF_ASC_NODE": 95.9251, "ARG_OF_PERICENTER": 119.8618, "MEAN_ANOMALY": 240.4523, "EPHEMERIS_TYPE": 0, "CLASSIFICATION_TYPE": "U", "NORAD_CAT_ID": 40105, "ELEMENT_SET_NO": 999, "REV_AT_EPOCH": 8232, "BSTAR": 0, "MEAN_MOTION_DOT": -9e-08, "MEAN_MOTION_DDOT": 0}, "tle": {"line1": "1 40105U 14045A   25346.08285724 -.00000009  00000+0  00000+0 0  9998", "line2": "2 40105  55.2287  95.9251 0032694 119.8618 240.4523  2.00572516 82323"}}, "geometry": {"type": "Point", "coordinates": [147.26381327686087, 48.44347841545664]}}, {"type": "Feature", "properties": {"norad_id": 40294, "name": "GPS BIIF-8  (PRN 03)", "group": "gps-ops", "lat": 20.689514194029147, "lon": -156.23912642203013, "alt_km": 20167.09739598922, "timestamp": "2025-12-16T03:53:27.314296+00:00", "meta": {"OBJECT_NAME": "GPS BIIF-8  (PRN 03)", "OBJECT_ID": "2014-068A", "EPOCH": "2025-12-13T10:57:14.379552", "MEAN_MOTION": 2.00564944, "ECCENTRICITY": 0.00607799, "INCLINATION": 56.8584, "RA_OF_ASC_NODE": 38.1182, "ARG_OF_PERICENTER": 69.1634, "MEAN_ANOMALY": 291.5378, "EPHEMERIS_TYPE": 0, "CLASSIFICATION_TYPE": "U", "NORAD_CAT_ID": 40294, "ELEMENT_SET_NO": 999, "REV_AT_EPOCH": 8148, "BSTAR": 0, "MEAN_MOTION_DOT": -9.5e-07, "MEAN_MOTION_DDOT": 0}, "tle": {"line1": "1 40294U 14068A   25347.45641643 -.00000095  00000+0  00000+0 0  9995", "line2": "2 40294  56.8584  38.1182 0060779  69.1634 291.5378  2.00564944 81488"}}, "geometry": {"type": "Point", "coordinates": [-156.23912642203013, 20.689514194029147]}}]}